[
  {
    "COMMENT": "GENERATED VIA SPACETRACK.ORG API",
    "ORIGINATOR": "18 SPCS",
    "NORAD_CAT_ID": "48621",
    "OBJECT_NAME": "HAIYANG 2D",
    "OBJECT_TYPE": "PAYLOAD",
    "CLASSIFICATION_TYPE": "U",
    "INTLDES": "21043A",
    "EPOCH": "2023-05-25 17:56:18",
    "EPOCH_MICROSECONDS": "409056",
    "MEAN_MOTION": "13.83370865",
    "ECCENTRICITY": "0.0008718",
    "INCLINATION": "65.9971",
    "RA_OF_ASC_NODE": "209.2266",
    "ARG_OF_PERICENTER": "259.3045",
    "MEAN_ANOMALY": "100.7042",
    "EPHEMERIS_TYPE": "0",
    "ELEMENT_SET_NO": "999",
    "REV_AT_EPOCH": "10188",
    "BSTAR": "0.000080647",
    "MEAN_MOTION_DOT": "0.00000008",
    "MEAN_MOTION_DDOT": "0",
    "FILE": "3917070",
    "TLE_LINE0": "0 HAIYANG 2D",
    "TLE_LINE1": "1 48621U 21043A   23145.74743529  .00000008  00000-0  80647-4 0  9994",
    "TLE_LINE2": "2 48621  65.9971 209.2266 0008718 259.3045 100.7042 13.83370865101885",
    "OBJECT_ID": "2021-043A",
    "OBJECT_NUMBER": "48621",
    "SEMIMAJOR_AXIS": "7330.092",
    "PERIOD": "104.094",
    "APOGEE": "958.347",
    "PERIGEE": "945.567",
    "DECAYED": "0"
  },
  {
    "COMMENT": "GENERATED VIA SPACETRACK.ORG API",
    "ORIGINATOR": "18 SPCS",
    "NORAD_CAT_ID": "48621",
    "OBJECT_NAME": "HAIYANG 2D",
    "OBJECT_TYPE": "PAYLOAD",
    "CLASSIFICATION_TYPE": "U",
    "INTLDES": "21043A",
    "EPOCH": "2023-05-25 19:40:24",
    "EPOCH_MICROSECONDS": "691872",
    "MEAN_MOTION": "13.83370826",
    "ECCENTRICITY": "0.0008718",
    "INCLINATION": "65.9971",
    "RA_OF_ASC_NODE": "209.0467",
    "ARG_OF_PERICENTER": "259.3271",
    "MEAN_ANOMALY": "100.6815",
    "EPHEMERIS_TYPE": "0",
    "ELEMENT_SET_NO": "999",
    "REV_AT_EPOCH": "10185",
    "BSTAR": "0.000067964",
    "MEAN_MOTION_DOT": "-0.00000006",
    "MEAN_MOTION_DDOT": "0",
    "FILE": "3917122",
    "TLE_LINE0": "0 HAIYANG 2D",
    "TLE_LINE1": "1 48621U 21043A   23145.81973023 -.00000006  00000-0  67964-4 0  9992",
    "TLE_LINE2": "2 48621  65.9971 209.0467 0008718 259.3271 100.6815 13.83370826101858",
    "OBJECT_ID": "2021-043A",
    "OBJECT_NUMBER": "48621",
    "SEMIMAJOR_AXIS": "7330.092",
    "PERIOD": "104.094",
    "APOGEE": "958.347",
    "PERIGEE": "945.567",
    "DECAYED": "0"
  },
  {
    "COMMENT": "GENERATED VIA SPACETRACK.ORG API",
    "ORIGINATOR": "18 SPCS",
    "NORAD_CAT_ID": "48621",
    "OBJECT_NAME": "HAIYANG 2D",
    "OBJECT_TYPE": "PAYLOAD",
    "CLASSIFICATION_TYPE": "U",
    "INTLDES": "21043A",
    "EPOCH": "2023-05-26 04:20:56",
    "EPOCH_MICROSECONDS": "102496",
    "MEAN_MOTION": "13.83370849",
    "ECCENTRICITY": "0.0008713",
    "INCLINATION": "65.997",
    "RA_OF_ASC_NODE": "208.1468",
    "ARG_OF_PERICENTER": "259.3118",
    "MEAN_ANOMALY": "100.697",
    "EPHEMERIS_TYPE": "0",
    "ELEMENT_SET_NO": "999",
    "REV_AT_EPOCH": "10194",
    "BSTAR": "0.000057181",
    "MEAN_MOTION_DOT": "-0.00000018",
    "MEAN_MOTION_DDOT": "0",
    "FILE": "3917460",
    "TLE_LINE0": "0 HAIYANG 2D",
    "TLE_LINE1": "1 48621U 21043A   23146.18120489 -.00000018  00000-0  57181-4 0  9996",
    "TLE_LINE2": "2 48621  65.9970 208.1468 0008713 259.3118 100.6970 13.83370849101940",
    "OBJECT_ID": "2021-043A",
    "OBJECT_NUMBER": "48621",
    "SEMIMAJOR_AXIS": "7330.092",
    "PERIOD": "104.094",
    "APOGEE": "958.344",
    "PERIGEE": "945.570",
    "DECAYED": "0"
  },
  {
    "COMMENT": "GENERATED VIA SPACETRACK.ORG API",
    "ORIGINATOR": "18 SPCS",
    "NORAD_CAT_ID": "48621",
    "OBJECT_NAME": "HAIYANG 2D",
    "OBJECT_TYPE": "PAYLOAD",
    "CLASSIFICATION_TYPE": "U",
    "INTLDES": "21043A",
    "EPOCH": "2023-05-26 13:01:27",
    "EPOCH_MICROSECONDS": "510528",
    "MEAN_MOTION": "13.833709",
    "ECCENTRICITY": "0.0008712",
    "INCLINATION": "65.997",
    "RA_OF_ASC_NODE": "207.2469",
    "ARG_OF_PERICENTER": "259.3396",
    "MEAN_ANOMALY": "100.6691",
    "EPHEMERIS_TYPE": "0",
    "ELEMENT_SET_NO": "999",
    "REV_AT_EPOCH": "10199",
    "BSTAR": "0.000057593",
    "MEAN_MOTION_DOT": "-0.00000018",
    "MEAN_MOTION_DDOT": "0",
    "FILE": "3917595",
    "TLE_LINE0": "0 HAIYANG 2D",
    "TLE_LINE1": "1 48621U 21043A   23146.54267952 -.00000018  00000-0  57593-4 0  9990",
    "TLE_LINE2": "2 48621  65.9970 207.2469 0008712 259.3396 100.6691 13.83370900101991",
    "OBJECT_ID": "2021-043A",
    "OBJECT_NUMBER": "48621",
    "SEMIMAJOR_AXIS": "7330.092",
    "PERIOD": "104.094",
    "APOGEE": "958.343",
    "PERIGEE": "945.571",
    "DECAYED": "0"
  },
  {
    "COMMENT": "GENERATED VIA SPACETRACK.ORG API",
    "ORIGINATOR": "18 SPCS",
    "NORAD_CAT_ID": "48621",
    "OBJECT_NAME": "HAIYANG 2D",
    "OBJECT_TYPE": "PAYLOAD",
    "CLASSIFICATION_TYPE": "U",
    "INTLDES": "21043A",
    "EPOCH": "2023-05-26 18:13:46",
    "EPOCH_MICROSECONDS": "353792",
    "MEAN_MOTION": "13.83370931",
    "ECCENTRICITY": "0.000871",
    "INCLINATION": "65.997",
    "RA_OF_ASC_NODE": "206.707",
    "ARG_OF_PERICENTER": "259.3634",
    "MEAN_ANOMALY": "100.6453",
    "EPHEMERIS_TYPE": "0",
    "ELEMENT_SET_NO": "999",
    "REV_AT_EPOCH": "10202",
    "BSTAR": "0.00005527",
    "MEAN_MOTION_DOT": "-0.0000002",
    "MEAN_MOTION_DDOT": "0",
    "FILE": "3917808",
    "TLE_LINE0": "0 HAIYANG 2D",
    "TLE_LINE1": "1 48621U 21043A   23146.75956428 -.00000020  00000-0  55270-4 0  9999",
    "TLE_LINE2": "2 48621  65.9970 206.7070 0008710 259.3634 100.6453 13.83370931102021",
    "OBJECT_ID": "2021-043A",
    "OBJECT_NUMBER": "48621",
    "SEMIMAJOR_AXIS": "7330.092",
    "PERIOD": "104.094",
    "APOGEE": "958.341",
    "PERIGEE": "945.572",
    "DECAYED": "0"
  },
  {
    "COMMENT": "GENERATED VIA SPACETRACK.ORG API",
    "ORIGINATOR": "18 SPCS",
    "NORAD_CAT_ID": "48621",
    "OBJECT_NAME": "HAIYANG 2D",
    "OBJECT_TYPE": "PAYLOAD",
    "CLASSIFICATION_TYPE": "U",
    "INTLDES": "21043A",
    "EPOCH": "2023-05-26 21:41:58",
    "EPOCH_MICROSECONDS": "917696",
    "MEAN_MOTION": "13.83370919",
    "ECCENTRICITY": "0.000871",
    "INCLINATION": "65.997",
    "RA_OF_ASC_NODE": "206.347",
    "ARG_OF_PERICENTER": "259.3783",
    "MEAN_ANOMALY": "100.6305",
    "EPHEMERIS_TYPE": "0",
    "ELEMENT_SET_NO": "999",
    "REV_AT_EPOCH": "10200",
    "BSTAR": "0.000047875",
    "MEAN_MOTION_DOT": "-0.00000029",
    "MEAN_MOTION_DDOT": "0",
    "FILE": "3917850",
    "TLE_LINE0": "0 HAIYANG 2D",
    "TLE_LINE1": "1 48621U 21043A   23146.90415414 -.00000029  00000-0  47875-4 0  9992",
    "TLE_LINE2": "2 48621  65.9970 206.3470 0008710 259.3783 100.6305 13.83370919102006",
    "OBJECT_ID": "2021-043A",
    "OBJECT_NUMBER": "48621",
    "SEMIMAJOR_AXIS": "7330.092",
    "PERIOD": "104.094",
    "APOGEE": "958.341",
    "PERIGEE": "945.572",
    "DECAYED": "0"
  },
  {
    "COMMENT": "GENERATED VIA SPACETRACK.ORG API",
    "ORIGINATOR": "18 SPCS",
    "NORAD_CAT_ID": "48621",
    "OBJECT_NAME": "HAIYANG 2D",
    "OBJECT_TYPE": "PAYLOAD",
    "CLASSIFICATION_TYPE": "U",
    "INTLDES": "21043A",
    "EPOCH": "2023-05-27 04:38:24",
    "EPOCH_MICROSECONDS": "40320",
    "MEAN_MOTION": "13.83370953",
    "ECCENTRICITY": "0.0008708",
    "INCLINATION": "65.9969",
    "RA_OF_ASC_NODE": "205.6271",
    "ARG_OF_PERICENTER": "259.3133",
    "MEAN_ANOMALY": "100.6955",
    "EPHEMERIS_TYPE": "0",
    "ELEMENT_SET_NO": "999",
    "REV_AT_EPOCH": "10208",
    "BSTAR": "0.000043122",
    "MEAN_MOTION_DOT": "-0.00000034",
    "MEAN_MOTION_DDOT": "0",
    "FILE": "3918197",
    "TLE_LINE0": "0 HAIYANG 2D",
    "TLE_LINE1": "1 48621U 21043A   23147.19333380 -.00000034  00000-0  43122-4 0  9992",
    "TLE_LINE2": "2 48621  65.9969 205.6271 0008708 259.3133 100.6955 13.83370953102088",
    "OBJECT_ID": "2021-043A",
    "OBJECT_NUMBER": "48621",
    "SEMIMAJOR_AXIS": "7330.092",
    "PERIOD": "104.094",
    "APOGEE": "958.340",
    "PERIGEE": "945.574",
    "DECAYED": "0"
  },
  {
    "COMMENT": "GENERATED VIA SPACETRACK.ORG API",
    "ORIGINATOR": "18 SPCS",
    "NORAD_CAT_ID": "48621",
    "OBJECT_NAME": "HAIYANG 2D",
    "OBJECT_TYPE": "PAYLOAD",
    "CLASSIFICATION_TYPE": "U",
    "INTLDES": "21043A",
    "EPOCH": "2023-05-27 09:50:42",
    "EPOCH_MICROSECONDS": "885312",
    "MEAN_MOTION": "13.83370963",
    "ECCENTRICITY": "0.0008709",
    "INCLINATION": "65.9969",
    "RA_OF_ASC_NODE": "205.0871",
    "ARG_OF_PERICENTER": "259.3321",
    "MEAN_ANOMALY": "100.6766",
    "EPHEMERIS_TYPE": "0",
    "ELEMENT_SET_NO": "999",
    "REV_AT_EPOCH": "10211",
    "BSTAR": "0.000043055",
    "MEAN_MOTION_DOT": "-0.00000034",
    "MEAN_MOTION_DDOT": "0",
    "FILE": "3918451",
    "TLE_LINE0": "0 HAIYANG 2D",
    "TLE_LINE1": "1 48621U 21043A   23147.41021858 -.00000034  00000-0  43055-4 0  9996",
    "TLE_LINE2": "2 48621  65.9969 205.0871 0008709 259.3321 100.6766 13.83370963102113",
    "OBJECT_ID": "2021-043A",
    "OBJECT_NUMBER": "48621",
    "SEMIMAJOR_AXIS": "7330.092",
    "PERIOD": "104.094",
    "APOGEE": "958.340",
    "PERIGEE": "945.573",
    "DECAYED": "0"
  }
]